SARSAT 7 (NOAA 15)      
1 25338U 98030A   24165.58956148  .00000329  00000+0  15416-3 0  9998
2 25338  98.5682 192.7916 0009765 342.0048  18.0785 14.26601876356671
GPS BIIR-08             
1 27663U 03005A   24164.74571648 -.00000026  00000+0  00000+0 0  9998
2 27663  55.1064 244.1731 0136505  47.3646 343.8698  2.00575157156587
GPS BIIR-11             
1 28190U 04009A   24165.48870733 -.00000075  00000+0  00000+0 0  9992
2 28190  55.4579 305.1871 0097827 147.9624 219.3608  2.00559465148231
GPS BIIR-13             
1 28474U 04045A   24163.41982043 -.00000100  00000+0  00000+0 0  9995
2 28474  55.4278 354.4397 0161816 292.3482  66.5354  2.00561210143673
SARSAT 10 (NOAA 18)     
1 28654U 05018A   24165.52653500  .00000297  00000+0  18183-3 0  9994
2 28654  98.8743 242.5217 0015253  75.7605 284.5260 14.13229945982652
GPS BIIR-14M            
1 28874U 05038A   24165.53035576 -.00000074  00000+0  00000+0 0  9997
2 28874  55.5040 302.6467 0136064 284.1362 137.3419  2.00555753137128
METEOSAT-9 (MSG-2)      
1 28912U 05049B   24164.88349927  .00000129  00000+0  00000+0 0  9997
2 28912   7.6775  60.9092 0001349   0.0191 204.5676  1.00276413 67715
GOES 13                 
1 29155U 06018A   24165.55488620  .00000065  00000+0  00000+0 0  9992
2 29155   2.6173  85.3341 0082028 255.2903  10.2919  0.99102011 35994
GPS BIIR-16M            
1 29601U 06052A   24165.01183318 -.00000025  00000+0  00000+0 0  9990
2 29601  55.1366 243.1398 0085113  83.0480 277.9796  2.00567648128687
GPS BIIR-17M            
1 32260U 07047A   24165.31349620  .00000015  00000+0  00000+0 0  9991
2 32260  53.6054 110.4104 0154969  75.2044 286.4817  2.00564340122099
GPS BIIR-18M            
1 32384U 07062A   24165.58596623 -.00000074  00000+0  00000+0 0  9997
2 32384  55.6433 303.5064 0028478 151.1435 173.7985  2.00574759120796
SARSAT 12 (NOAA 19)     
1 33591U 09005A   24165.61899641  .00000258  00000+0  16249-3 0  9996
2 33591  99.0470 221.3805 0012862 304.6151  55.3807 14.13025692790863
GOES 14                 
1 35491U 09033A   24165.51934278 -.00000057  00000+0  00000+0 0  9995
2 35491   0.3306 104.4911 0003735 348.1929 248.0278  1.00272919 54753
GOES 15                 
1 36411U 10008A   24165.44599819  .00000047  00000+0  00000+0 0  9990
2 36411   0.2921  89.4674 0001873 104.0637 290.6226  1.00268561 52282
GSAT0101 (GALILEO-PFM)  
1 37846U 11060A   24165.61719852 -.00000088  00000+0  00000+0 0  9998
2 37846  57.1290   1.6289 0003564  48.8487 311.2124  1.70476088 78614
GSAT0102 (GALILEO-FM2)  
1 37847U 11060B   24163.46905795 -.00000095  00000+0  00000+0 0  9991
2 37847  57.1296   1.6871 0003377  12.8374 154.5577  1.70475511 78582
LUCH 5A                 
1 37951U 11074B   24164.63243730 -.00000045  00000+0  00000+0 0  9991
2 37951   6.8743  85.0464 0003994   5.5472 205.3749  1.00272095 45689
METEOSAT-10 (MSG-3)     
1 38552U 12035B   24165.07595038  .00000001  00000+0  00000+0 0  9998
2 38552   2.9569  60.9693 0000866 309.6944 278.8500  1.00266642 43491
SARSAT 13 (METOP-B)     
1 38771U 12049A   24165.58345913  .00000191  00000+0  10706-3 0  9995
2 38771  98.6272 222.8880 0001695  77.9591 282.1776 14.21551943609048
GPS BIIF-3              
1 38833U 12053A   24165.41023024  .00000076  00000+0  00000+0 0  9991
2 38833  53.5172 173.6233 0151609  55.7245 305.7286  2.00558702 84726
GSAT0103 (GALILEO-FM3)  
1 38857U 12055A   24163.30997249  .00000023  00000+0  00000+0 0  9996
2 38857  55.4050 121.7670 0005464 281.4400  78.4521  1.70473708 72467
GPS BIIF-4              
1 39166U 13023A   24164.27607405 -.00000070  00000+0  00000+0 0  9998
2 39166  55.1176 298.7795 0123941  44.8622 316.1271  2.00562946 81144
INSAT-3D                
1 39216U 13038B   24165.52167309 -.00000148  00000+0  00000+0 0  9999
2 39216   0.0365 117.0179 0000804 144.6448 270.5523  1.00271188 39729
GPS BIIF-5              
1 39533U 14008A   24165.27425747  .00000070  00000+0  00000+0 0  9997
2 39533  53.5999 179.2259 0073154 220.5787 138.9082  2.00568362 74960
LUCH 5V                 
1 39727U 14023A   24165.59575713 -.00000260  00000+0  00000+0 0  9995
2 39727   3.2893  76.0774 0002114  49.9840  85.4956  1.00268166 37005
GPS BIIF-6              
1 39741U 14026A   24165.55125439 -.00000092  00000+0  00000+0 0  9999
2 39741  56.7103   0.0078 0031113 317.0151  42.7720  2.00568817 73829
GPS BIIF-7              
1 40105U 14045A   24165.14598410  .00000031  00000+0  00000+0 0  9996
2 40105  54.9296 117.7700 0025428 115.2235 245.0141  2.00566126 71351
GSAT0201 (GALILEO 5)    
1 40128U 14050A   24164.77548473 -.00000098  00000+0  00000+0 0  9993
2 40128  49.6651 303.2412 1611472 151.0722 218.9271  1.85519543 64699
GSAT0202 (GALILEO 6)    
1 40129U 14050B   24165.57278325 -.00000099  00000+0  00000+0 0  9990
2 40129  49.6812 302.2860 1610247 151.9053 217.8320  1.85520192 66844
GPS BIIF-8              
1 40294U 14068A   24165.01829968 -.00000077  00000+0  00000+0 0  9992
2 40294  56.4174  59.4028 0053768  61.9256 298.6528  2.00559616 70487
GLONASS-K 2             
1 40315U 14075A   24165.37919054  .00000028  00000+0  00000+0 0  9994
2 40315  63.6211 215.8089 0020752 210.5771 149.3753  2.13101576 74218
GPS BIIF-9              
1 40534U 15013A   24163.15545816 -.00000013  00000+0  00000+0 0  9990
2 40534  53.3451 234.6481 0087635  29.7468 330.8202  2.00565900 67066
GSAT0203 (GALILEO 7)    
1 40544U 15017A   24163.05011168 -.00000097  00000+0  00000+0 0  9994
2 40544  56.9241   1.6332 0001444 271.0660  88.9452  1.70476074 56650
GSAT0204 (GALILEO 8)    
1 40545U 15017B   24165.06405854 -.00000091  00000+0  00000+0 0  9991
2 40545  56.9303   1.5939 0001285 225.0854 134.9334  1.70475780 19731
GPS BIIF-10             
1 40730U 15033A   24164.81297509 -.00000072  00000+0  00000+0 0  9992
2 40730  54.6005 297.2334 0093971  19.6972 340.6590  2.00567325 65265
METEOSAT-11 (MSG-4)     
1 40732U 15034A   24165.57881743  .00000073  00000+0  00000+0 0  9998
2 40732   1.3776  69.0255 0001747 152.7653 258.3925  1.00277935   498
GSAT0205 (GALILEO 9)    
1 40889U 15045A   24163.07251553 -.00000008  00000+0  00000+0 0  9995
2 40889  55.2198 241.9396 0003147  25.9517 334.1341  1.70474057 54462
GSAT0206 (GALILEO 10)   
1 40890U 15045B   24158.01390575  .00000004  00000+0  00000+0 0  9998
2 40890  55.2210 242.0747 0001124 354.7070   5.3540  1.70473725 54404
GPS BIIF-11             
1 41019U 15062A   24164.87170023 -.00000077  00000+0  00000+0 0  9997
2 41019  56.3977  59.2615 0095065 225.0601 134.2007  2.00562599 63108
ELEKTRO-L 2             
1 41105U 15074A   24165.43094326 -.00000108  00000+0  00000+0 0  9995
2 41105   4.8330  79.5133 0000594 169.0484 154.3496  1.00272102 31145
GSAT0209 (GALILEO 12)   
1 41174U 15079A   24164.04939830  .00000026  00000+0  00000+0 0  9998
2 41174  55.4237 121.4558 0005253 315.7499  44.1651  1.70474168 52246
GSAT0208 (GALILEO 11)   
1 41175U 15079B   24164.26915715  .00000027  00000+0  00000+0 0  9990
2 41175  55.4251 121.4477 0004535 315.2466  44.6748  1.70474121 52661
GPS BIIF-12             
1 41328U 16007A   24164.95218451  .00000033  00000+0  00000+0 0  9998
2 41328  55.1249 118.6191 0079823 238.9140 120.2749  2.00562161 61116
GSAT0211 (GALILEO 14)   
1 41549U 16030A   24164.97861106 -.00000006  00000+0  00000+0 0  9993
2 41549  55.3662 241.8932 0002775 308.6172  51.4241  1.70474079 50156
GSAT0210 (GALILEO 13)   
1 41550U 16030B   24164.68330939 -.00000007  00000+0  00000+0 0  9999
2 41550  55.3654 241.9023 0002799 263.7423  96.2924  1.70474096 50140
INSAT-3DR               
1 41752U 16054A   24165.52001966 -.00000069  00000+0  00000+0 0  9996
2 41752   0.0939  94.7471 0010316 175.1318 253.6255  1.00272096 28466
GSAT0207 (GALILEO 15)   
1 41859U 16069A   24164.92962476  .00000029  00000+0  00000+0 0  9990
2 41859  55.0887 121.4342 0005490 304.1298  55.7785  1.70474107 47104
GSAT0212 (GALILEO 16)   
1 41860U 16069B   24164.19733386  .00000026  00000+0  00000+0 0  9994
2 41860  55.0863 121.4509 0004110 326.2520  33.6794  1.70474344 47126
GSAT0213 (GALILEO 17)   
1 41861U 16069C   24163.97911694  .00000025  00000+0  00000+0 0  9999
2 41861  55.0882 121.4635 0005431 287.3019  72.5955  1.70472968 46989
GSAT0214 (GALILEO 18)   
1 41862U 16069D   24165.29767251  .00000030  00000+0  00000+0 0  9991
2 41862  55.0875 121.4206 0004449 291.9466  67.9676  1.70474340 47133
GOES 16                 
1 41866U 16071A   24165.33382726 -.00000240  00000+0  00000+0 0  9997
2 41866   0.0701 256.0860 0000261 159.6374 251.3841  1.00271968 27744
GSAT-17                 
1 42815U 17040B   24163.95674329 -.00000254  00000+0  00000+0 0  9993
2 42815   0.0090 334.1495 0001937 329.3886  35.1284  1.00267553 25413
GSAT0215 (GALILEO 19)   
1 43055U 17079A   24161.68135142 -.00000004  00000+0  00000+0 0  9998
2 43055  55.3444 241.8058 0002050 251.4495 108.6006  1.70474856 40411
GSAT0216 (GALILEO 20)   
1 43056U 17079B   24163.73279048 -.00000008  00000+0  00000+0 0  9995
2 43056  55.3437 241.7493 0003688 267.4548  92.5717  1.70474936 40464
GSAT0217 (GALILEO 21)   
1 43057U 17079C   24163.95325204 -.00000008  00000+0  00000+0 0  9996
2 43057  55.3417 241.7419 0003409 278.8904  81.1393  1.70474827 40456
GSAT0218 (GALILEO 22)   
1 43058U 17079D   24163.00014447 -.00000007  00000+0  00000+0 0  9996
2 43058  55.3424 241.7657 0003919 265.9320  94.0936  1.70474908 40461
GOES 17                 
1 43226U 18022A   24165.52210947 -.00000082  00000+0  00000+0 0  9997
2 43226   0.0292 135.1431 0000668 334.6618 235.7587  1.00272235 23061
GSAT0221 (GALILEO 25)   
1 43564U 18060A   24160.55450440 -.00000099  00000+0  00000+0 0  9994
2 43564  57.3039   1.6992 0003031 302.0500  57.9514  1.70475818 36589
GSAT0222 (GALILEO 26)   
1 43565U 18060B   24164.29255795 -.00000093  00000+0  00000+0 0  9990
2 43565  57.3078   1.6005 0001264 231.7343 128.2828  1.70475669 36682
GSAT0219 (GALILEO 23)   
1 43566U 18060C   24165.10103091 -.00000090  00000+0  00000+0 0  9990
2 43566  57.3070   1.5806 0001840 333.4034  26.6167  1.70475996 36679
